KEPLER-21               
1 56218U 23054AS  26068.80780274  .00079942  00000+0  58135-3 0  9999
2 56218  97.2962 342.6260 0004885  55.6816 304.4910 15.73096759163494
STARLINK-11462 [DTC]    
1 62412U 24249D   26068.32841017  .00310310  00000+0  23329-2 0  9992
2 62412  42.9983 169.8440 0005008 292.4524  67.5813 15.70830095 69424
